[{"OBJECT_NAME":"IRIDIUM 131","OBJECT_ID":"2017-083K","EPOCH":"2026-03-09T21:48:59.192352","MEAN_MOTION":14.34218122,"ECCENTRICITY":0.00022716,"INCLINATION":86.4027,"RA_OF_ASC_NODE":3.6576,"ARG_OF_PERICENTER":84.0859,"MEAN_ANOMALY":276.0595,"EPHEMERIS_TYPE":0,"CLASSIFICATION_TYPE":"U","NORAD_CAT_ID":43079,"ELEMENT_SET_NO":999,"REV_AT_EPOCH":42987,"BSTAR":0.00014526278,"MEAN_MOTION_DOT":4.27e-6,"MEAN_MOTION_DDOT":0},{"OBJECT_NAME":"SL-8 R\/B","OBJECT_ID":"1983-103B","EPOCH":"2026-03-09T17:19:25.319712","MEAN_MOTION":14.37362004,"ECCENTRICITY":0.00275661,"INCLINATION":74.0461,"RA_OF_ASC_NODE":162.5618,"ARG_OF_PERICENTER":297.7676,"MEAN_ANOMALY":62.0683,"EPHEMERIS_TYPE":0,"CLASSIFICATION_TYPE":"U","NORAD_CAT_ID":14402,"ELEMENT_SET_NO":999,"REV_AT_EPOCH":21964,"BSTAR":0.00011047384,"MEAN_MOTION_DOT":3.05e-6,"MEAN_MOTION_DDOT":0}]
